{
    "links": {
        "self": "http://www.neowsapp.com/rest/v1/neo/3348146?api_key=iIulBulltgU6a56xZRHN4H3l9WmuAYTsLGpBGhQ2"
    },
    "id": "3348146",
    "neo_reference_id": "3348146",
    "name": "(2006 TO)",
    "designation": "2006 TO",
    "nasa_jpl_url": "http://ssd.jpl.nasa.gov/sbdb.cgi?sstr=3348146",
    "absolute_magnitude_h": 23.0,
    "estimated_diameter": {
        "kilometers": {
            "estimated_diameter_min": 0.0667659413,
            "estimated_diameter_max": 0.1492931834
        },
        "meters": {
            "estimated_diameter_min": 66.7659413495,
            "estimated_diameter_max": 149.2931834393
        },
        "miles": {
            "estimated_diameter_min": 0.0414864197,
            "estimated_diameter_max": 0.0927664547
        },
        "feet": {
            "estimated_diameter_min": 219.0483710172,
            "estimated_diameter_max": 489.807047955
        }
    },
    "is_potentially_hazardous_asteroid": false,
    "close_approach_data": [
        {
            "close_approach_date": "1908-11-04",
            "close_approach_date_full": "1908-Nov-04 12:50",
            "epoch_date_close_approach": -1929957000000,
            "relative_velocity": {
                "kilometers_per_second": "5.3018230026",
                "kilometers_per_hour": "19086.5628094852",
                "miles_per_hour": "11859.6478745937"
            },
            "miss_distance": {
                "astronomical": "0.249857446",
                "lunar": "97.194546494",
                "kilometers": "37378141.72524002",
                "miles": "23225700.278031476"
            },
            "orbiting_body": "Earth"
        },
        {
            "close_approach_date": "2006-11-04",
            "close_approach_date_full": "2006-Nov-04 21:33",
            "epoch_date_close_approach": 1162675980000,
            "relative_velocity": {
                "kilometers_per_second": "5.1923893541",
                "kilometers_per_hour": "18692.6016747735",
                "miles_per_hour": "11614.8557461947"
            },
            "miss_distance": {
                "astronomical": "0.2068739775",
                "lunar": "80.4739772475",
                "kilometers": "30947906.392427925",
                "miles": "19230137.318938365"
            },
            "orbiting_body": "Earth"
        },
        {
            "close_approach_date": "2021-11-06",
            "close_approach_date_full": "2021-Nov-06 15:35",
            "epoch_date_close_approach": 1636212900000,
            "relative_velocity": {
                "kilometers_per_second": "5.1091801094",
                "kilometers_per_hour": "18393.048393731",
                "miles_per_hour": "11428.7249866491"
            },
            "miss_distance": {
                "astronomical": "0.2401485576",
                "lunar": "93.4177889064",
                "kilometers": "35925712.700532312",
                "miles": "22323202.7314454256"
            },
            "orbiting_body": "Earth"
        },
        {
            "close_approach_date": "2055-11-07",
            "close_approach_date_full": "2055-Nov-07 11:20",
            "epoch_date_close_approach": 2709199200000,
            "relative_velocity": {
                "kilometers_per_second": "4.1603560364",
                "kilometers_per_hour": "14977.2817309254",
                "miles_per_hour": "9306.3004177519"
            },
            "miss_distance": {
                "astronomical": "0.2073735281",
                "lunar": "80.6683024309",
                "kilometers": "31022638.098145147",
                "miles": "19276573.4475991486"
            },
            "orbiting_body": "Earth"
        }
    ],
    "orbital_data": {
        "orbit_id": "12",
        "orbit_determination_date": "2017-04-06 09:07:56",
        "first_observation_date": "2006-10-02",
        "last_observation_date": "2006-12-11",
        "data_arc_in_days": 70,
        "observations_used": 26,
        "orbit_uncertainty": "6",
        "minimum_orbit_intersection": ".185549",
        "jupiter_tisserand_invariant": "3.317",
        "epoch_osculation": "2459000.5",
        "eccentricity": ".5148631416223268",
        "semi_major_axis": "2.418214853198958",
        "inclination": "4.720306535975835",
        "ascending_node_longitude": "204.83065741199",
        "orbital_period": "1373.538235331877",
        "perihelion_distance": "1.173165156763169",
        "perihelion_argument": "202.6709114359903",
        "aphelion_distance": "3.663264549634748",
        "perihelion_time": "2459536.508016687623",
        "mean_anomaly": "219.5140047478036",
        "mean_motion": ".2620968173579937",
        "equinox": "J2000",
        "orbit_class": {
            "orbit_class_type": "AMO",
            "orbit_class_description": "Near-Earth asteroid orbits similar to that of 1221 Amor",
            "orbit_class_range": "1.017 AU < q (perihelion) < 1.3 AU"
        }
    },
    "is_sentry_object": false
}